IRIDIUM 106             
1 41917U 17003A   24222.48039549 -.00000023  00000+0 -15408-4 0  9995
2 41917  86.3990  11.3069 0001861  81.6647 278.4760 14.34217049396217
IRIDIUM 103             
1 41918U 17003B   24222.46771182  .00000465  00000+0  15899-3 0  9991
2 41918  86.3995  11.2137 0002511  90.6373 269.5110 14.34218118396237
IRIDIUM 109             
1 41919U 17003C   24222.47405382  .00000864  00000+0  30135-3 0  9992
2 41919  86.3996  11.2591 0002357  98.6922 261.4541 14.34217848396204
IRIDIUM 102             
1 41920U 17003D   24222.51210837  .00000021  00000+0  61289-6 0  9990
2 41920  86.4000  11.1815 0001971  97.2766 262.8654 14.34216577396290
IRIDIUM 105             
1 41921U 17003E   24222.62237041  .00000927  00000+0  32392-3 0  9994
2 41921  86.4018 339.5865 0002325  90.5920 269.5542 14.34226779398167
IRIDIUM 104             
1 41922U 17003F   24222.45502439  .00000191  00000+0  61211-4 0  9998
2 41922  86.3996  11.2374 0002492  98.2812 261.8666 14.34219030396275
IRIDIUM 114             
1 41923U 17003G   24222.46136361  .00000480  00000+0  16448-3 0  9999
2 41923  86.3997  11.2207 0002083  87.1397 273.0037 14.34216261396251
IRIDIUM 108             
1 41924U 17003H   24222.28034919  .00000057  00000+0  13394-4 0  9994
2 41924  86.4015 339.6508 0002044  96.1936 263.9492 14.34214989398082
